YAOGAN-30 09C           
1 48425U 21039C   26068.50592572  .00003875  00000+0  29017-3 0  9999
2 48425  34.9946 278.0042 0003376 296.3595  63.6766 15.02217537264550
STARLINK-6287           
1 56404U 23061AG  26068.35830843  .00000321  00000+0  38842-4 0  9991
2 56404  43.0036 186.3692 0001425 267.5844  92.4835 15.02534595156855
